NORAD_CAT_ID,OBJECT_NAME,OBJECT_TYPE,EPOCH,MEAN_MOTION,ECCENTRICITY,INCLINATION,RA_OF_ASC_NODE,ARG_OF_PERICENTER,MEAN_ANOMALY,BSTAR,MEAN_MOTION_DOT,MEAN_MOTION_DDOT,TLE_LINE0,TLE_LINE1,TLE_LINE2,SEMIMAJOR_AXIS,PERIOD,APOGEE,PERIGEE,DECAYED
52620.0,STARLINK-3975,PAYLOAD,2023-06-20 17:35:51,15.08841405,0.0001415,53.217,61.6772,104.2675,255.8474,-0.00010779,-2.003e-05,0.0,0 STARLINK-3975,1 52620U 22052Y   23171.73323165 -.00002003  00000-0 -10779-3 0  9994,2 52620  53.2170  61.6772 0001415 104.2675 255.8474 15.08841405 61255,6917.876,95.437,540.72,538.762,0.0
52620.0,STARLINK-3975,PAYLOAD,2023-06-20 20:46:37,15.08842915,0.000135,53.2176,61.0826,109.3183,250.7955,-1.2722e-05,-4.9e-06,0.0,0 STARLINK-3975,1 52620U 22052Y   23171.86571520 -.00000490  00000-0 -12722-4 0  9997,2 52620  53.2176  61.0826 0001350 109.3183 250.7955 15.08842915 60897,6917.871,95.437,540.67,538.803,0.0
52620.0,STARLINK-3975,PAYLOAD,2023-06-21 09:29:42,15.08846812,0.0001175,53.2181,58.7046,95.4101,264.7025,-5.8409e-05,-1.217e-05,0.0,0 STARLINK-3975,1 52620U 22052Y   23172.39563300 -.00001217  00000-0 -58409-4 0  9993,2 52620  53.2181  58.7046 0001175  95.4101 264.7025 15.08846812 60972,6917.86,95.437,540.537,538.912,0.0
52620.0,STARLINK-3975,PAYLOAD,2023-06-21 19:02:02,15.08833997,0.0001112,53.2178,56.9212,104.4343,255.6772,4.6015e-05,4.44e-06,0.0,0 STARLINK-3975,1 52620U 22052Y   23172.79308022  .00000444  00000-0  46015-4 0  9994,2 52620  53.2178  56.9212 0001112 104.4343 255.6772 15.08833997 61039,6917.899,95.438,540.533,538.994,0.0
52620.0,STARLINK-3975,PAYLOAD,2023-06-22 01:23:34,15.08844404,0.0001116,53.2179,55.7301,99.6461,260.4658,4.8634e-05,4.86e-06,0.0,0 STARLINK-3975,1 52620U 22052Y   23173.05803410  .00000486  00000-0  48634-4 0  9990,2 52620  53.2179  55.7301 0001116  99.6461 260.4658 15.08844404 61454,6917.867,95.437,540.504,538.96,0.0
52620.0,STARLINK-3975,PAYLOAD,2023-06-22 09:20:30,15.08840582,0.0001107,53.2181,54.2428,92.3089,267.803,1.1142e-05,-1.1e-06,0.0,0 STARLINK-3975,1 52620U 22052Y   23173.38923771 -.00000110  00000-0  11142-4 0  9998,2 52620  53.2181  54.2428 0001107  92.3089 267.8030 15.08840582 61501,6917.879,95.438,540.509,538.978,0.0
52620.0,STARLINK-3975,PAYLOAD,2023-06-24 01:05:08,15.08849875,0.0001141,53.2167,46.8082,92.4593,267.653,0.0002121,3.09e-05,0.0,0 STARLINK-3975,1 52620U 22052Y   23175.04523322  .00003090  00000-0  21210-3 0  9996,2 52620  53.2167  46.8082 0001141  92.4593 267.6530 15.08849875 61751,6917.85,95.437,540.505,538.926,0.0
52620.0,STARLINK-3975,PAYLOAD,2023-06-24 09:02:03,15.08845469,0.0001084,53.2161,45.321,97.0663,263.0453,0.00015928,2.248e-05,0.0,0 STARLINK-3975,1 52620U 22052Y   23175.37643485  .00002248  00000-0  15928-3 0  9998,2 52620  53.2161  45.3210 0001084  97.0663 263.0453 15.08845469 61802,6917.864,95.437,540.479,538.979,0.0
52620.0,STARLINK-3975,PAYLOAD,2023-06-25 15:14:23,15.08838668,0.0001126,53.2176,39.671,100.1967,259.9152,-9.8477e-06,-4.45e-06,0.0,0 STARLINK-3975,1 52620U 22052Y   23176.63499974 -.00000445  00000-0 -98477-5 0  9991,2 52620  53.2176  39.6710 0001126 100.1967 259.9152 15.08838668 61992,6917.884,95.438,540.528,538.971,0.0
52620.0,STARLINK-3975,PAYLOAD,2023-06-26 00:46:42,15.08843874,0.0001267,53.2179,37.8879,103.5315,256.5818,7.2136e-05,8.6e-06,0.0,0 STARLINK-3975,1 52620U 22052Y   23177.03243389  .00000860  00000-0  72136-4 0  9995,2 52620  53.2179  37.8879 0001267 103.5315 256.5818 15.08843874 62056,6917.869,95.437,540.61,538.857,0.0
52620.0,STARLINK-3975,PAYLOAD,2023-06-26 21:26:43,15.08837813,0.0001196,53.2177,34.0238,92.7048,267.4081,1.8132e-05,1e-08,0.0,0 STARLINK-3975,1 52620U 22052Y   23177.89356319  .00000001  00000-0  18132-4 0  9990,2 52620  53.2177  34.0238 0001196  92.7048 267.4081 15.08837813 62188,6917.887,95.438,540.579,538.925,0.0
52620.0,STARLINK-3975,PAYLOAD,2023-06-28 00:28:17,15.08843517,0.0001162,53.2181,28.9677,94.3112,265.8013,0.00013746,1.901e-05,0.0,0 STARLINK-3975,1 52620U 22052Y   23179.01964150  .00001901  00000-0  13746-3 0  9999,2 52620  53.2181  28.9677 0001162  94.3112 265.8013 15.08843517 62359,6917.87,95.437,540.538,538.931,0.0
52620.0,STARLINK-3975,PAYLOAD,2023-06-28 21:08:18,15.08839387,0.0001151,53.2182,25.1018,90.6298,269.4826,0.00013525,1.865e-05,0.0,0 STARLINK-3975,1 52620U 22052Y   23179.88076755  .00001865  00000-0  13525-3 0  9993,2 52620  53.2182  25.1018 0001151  90.6298 269.4826 15.08839387 62486,6917.882,95.438,540.544,538.951,0.0
52620.0,STARLINK-3975,PAYLOAD,2023-06-29 19:23:40,15.08902302,8.32e-05,53.2175,20.9378,95.7387,264.37,-0.00077773,-0.00012665,0.0,0 STARLINK-3975,1 52620U 22052Y   23180.80810440 -.00012665  00000-0 -77773-3 0  9991,2 52620  53.2175  20.9378 0000832  95.7387 264.3700 15.08902302 62629,6917.69,95.434,540.131,538.979,0.0
52620.0,STARLINK-3975,PAYLOAD,2023-06-30 20:49:51,15.08846473,0.0001197,53.2174,16.1812,84.9638,275.149,9.1871e-05,1.175e-05,0.0,0 STARLINK-3975,1 52620U 22052Y   23181.86796184  .00001175  00000-0  91871-4 0  9994,2 52620  53.2174  16.1812 0001197  84.9638 275.1490 15.08846473 62781,6917.861,95.437,540.554,538.898,0.0
52620.0,STARLINK-3975,PAYLOAD,2023-07-01 19:05:16,15.08834304,0.0001149,53.2174,12.0179,83.474,276.6383,-2.2253e-05,-6.42e-06,0.0,0 STARLINK-3975,1 52620U 22052Y   23182.79533259 -.00000642  00000-0 -22253-4 0  9997,2 52620  53.2174  12.0179 0001149  83.4740 276.6383 15.08834304 62920,6917.898,95.438,540.558,538.968,0.0
52620.0,STARLINK-3975,PAYLOAD,2023-07-02 15:45:16,15.08841663,0.0001212,53.2173,8.1526,76.0368,284.0758,8.1714e-05,1.013e-05,0.0,0 STARLINK-3975,1 52620U 22052Y   23183.65644543  .00001013  00000-0  81714-4 0  9990,2 52620  53.2173   8.1526 0001212  76.0368 284.0758 15.08841663 63056,6917.875,95.437,540.579,538.902,0.0
52620.0,STARLINK-3975,PAYLOAD,2023-07-02 23:42:11,15.08860257,0.0001725,53.2181,6.6644,65.6071,294.5101,-3.6028e-06,-3.46e-06,0.0,0 STARLINK-3975,1 52620U 22052Y   23183.98763609 -.00000346  00000-0 -36028-5 0  9990,2 52620  53.2181   6.6644 0001725  65.6071 294.5101 15.08860257 63107,6917.818,95.436,540.877,538.49,0.0
52620.0,STARLINK-3975,PAYLOAD,2023-07-03 17:11:27,15.08838793,0.000121,53.2179,3.3938,82.0465,278.0664,8.451e-05,1.057e-05,0.0,0 STARLINK-3975,1 52620U 22052Y   23184.71628791  .00001057  00000-0  84510-4 0  9990,2 52620  53.2179   3.3938 0001210  82.0465 278.0664 15.08838793 63216,6917.884,95.438,540.586,538.912,0.0
52620.0,STARLINK-3975,PAYLOAD,2023-07-04 23:23:46,15.08849371,0.0001196,53.2181,357.745,81.6685,278.4443,9.6034e-05,1.241e-05,0.0,0 STARLINK-3975,1 52620U 22052Y   23185.97484259  .00001241  00000-0  96034-4 0  9997,2 52620  53.2181 357.7450 0001196  81.6685 278.4443 15.08849371 63400,6917.852,95.437,540.544,538.889,0.0
52620.0,STARLINK-3975,PAYLOAD,2023-07-05 04:09:56,15.08834407,0.0001707,53.2185,356.8505,84.3102,275.8085,-7.1527e-05,-1.426e-05,0.0,0 STARLINK-3975,1 52620U 22052Y   23186.17357635 -.00001426  00000-0 -71527-4 0  9994,2 52620  53.2185 356.8505 0001707  84.3102 275.8085 15.08834407 63437,6917.897,95.438,540.943,538.582,0.0
52620.0,STARLINK-3975,PAYLOAD,2023-07-05 18:28:24,15.08839924,0.0001005,53.2177,354.177,87.7735,272.3372,6.6884e-05,7.77e-06,0.0,0 STARLINK-3975,1 52620U 22052Y   23186.76973108  .00000777  00000-0  66884-4 0  9994,2 52620  53.2177 354.1770 0001005  87.7735 272.3372 15.08839924 63523,6917.881,95.438,540.441,539.05,0.0
52620.0,STARLINK-3975,PAYLOAD,2023-07-07 03:51:30,15.08845548,0.0001045,53.2176,347.9318,95.1092,265.0019,0.00012818,1.753e-05,0.0,0 STARLINK-3975,1 52620U 22052Y   23188.16076836  .00001753  00000-0  12818-3 0  9994,2 52620  53.2176 347.9318 0001045  95.1092 265.0019 15.08845548 63732,6917.863,95.437,540.451,539.006,0.0
52620.0,STARLINK-3975,PAYLOAD,2023-07-07 10:13:03,15.08838799,9.42e-05,53.2184,346.7428,95.4281,264.6819,0.00019556,2.826e-05,0.0,0 STARLINK-3975,1 52620U 22052Y   23188.42573265  .00002826  00000-0  19556-3 0  9999,2 52620  53.2184 346.7428 0000942  95.4281 264.6819 15.08838799 63775,6917.884,95.438,540.401,539.097,0.0
52620.0,STARLINK-3975,PAYLOAD,2023-07-08 16:25:23,15.088353,0.0001152,53.2172,341.0912,95.7267,264.3856,-1.9422e-05,-5.97e-06,0.0,0 STARLINK-3975,1 52620U 22052Y   23189.68429746 -.00000597  00000-0 -19422-4 0  9990,2 52620  53.2172 341.0912 0001152  95.7267 264.3856 15.08835300 63963,6917.895,95.438,540.557,538.963,0.0
52620.0,STARLINK-3975,PAYLOAD,2023-07-09 16:16:09,15.08848958,0.0001067,53.2168,336.6311,92.0109,268.1006,0.00022627,3.316e-05,0.0,0 STARLINK-3975,1 52620U 22052Y   23190.67789288  .00003316  00000-0  22627-3 0  9991,2 52620  53.2168 336.6311 0001067  92.0109 268.1006 15.08848958 64111,6917.853,95.437,540.456,538.98,0.0
52620.0,STARLINK-3975,PAYLOAD,2023-07-10 09:45:24,15.08839236,0.0001016,53.2163,333.3605,86.5964,273.5145,0.00020175,2.924e-05,0.0,0 STARLINK-3975,1 52620U 22052Y   23191.40653799  .00002924  00000-0  20175-3 0  9990,2 52620  53.2163 333.3605 0001016  86.5964 273.5145 15.08839236 64222,6917.883,95.438,540.451,539.045,0.0
52620.0,STARLINK-3975,PAYLOAD,2023-07-11 14:22:20,15.0884222,9.63e-05,53.2183,328.0092,99.9854,260.1247,0.00028418,4.238e-05,0.0,0 STARLINK-3975,1 52620U 22052Y   23192.59885361  .00004238  00000-0  28418-3 0  9991,2 52620  53.2183 328.0092 0000963  99.9854 260.1247 15.08842220 64403,6917.874,95.437,540.405,539.072,0.0
52620.0,STARLINK-3975,PAYLOAD,2023-07-12 15:48:31,15.08842087,0.0001358,53.2191,323.2512,97.516,262.5986,6.4522e-05,7.39e-06,0.0,0 STARLINK-3975,1 52620U 22052Y   23193.65869303  .00000739  00000-0  64522-4 0  9996,2 52620  53.2191 323.2512 0001358  97.5160 262.5986 15.08842087 64563,6917.874,95.437,540.678,538.8,0.0
52620.0,STARLINK-3975,PAYLOAD,2023-07-13 15:39:18,15.08835724,9.48e-05,53.2195,318.7926,98.1341,261.9759,1.6409e-05,-2.7e-07,0.0,0 STARLINK-3975,1 52620U 22052Y   23194.65230011 -.00000027  00000-0  16409-4 0  9997,2 52620  53.2195 318.7926 0000948  98.1341 261.9759 15.08835724 64715,6917.893,95.438,540.414,539.103,0.0
